{
  "type": "FeatureCollection",
  "features": [
    {
      "type": "Feature",
      "properties": {
        "norad_id": 66631,
        "name": "STARLINK-35965",
        "group": "last-30-days",
        "lat": -35.41752227484432,
        "lon": 14.31723247246121,
        "alt_km": 423.3736204061306,
        "timestamp": "2025-12-17T23:38:05.624678+00:00",
        "meta_object_name": "STARLINK-35965",
        "meta_object_id": "2025-271Q",
        "meta_epoch": "2025-12-17T13:22:23.020896",
        "meta_mean_motion": 15.49326062,
        "meta_eccentricity": 9.66e-05,
        "meta_inclination": 53.1591,
        "meta_ra_of_asc_node": 164.1431,
        "meta_arg_of_pericenter": 43.7277,
        "meta_mean_anomaly": 316.3808,
        "meta_ephemeris_type": 0,
        "meta_classification_type": "U",
        "meta_norad_cat_id": 66631,
        "meta_element_set_no": 999,
        "meta_rev_at_epoch": 495,
        "meta_bstar": 0.00094503782,
        "meta_mean_motion_dot": 0.00052496,
        "meta_mean_motion_ddot": 0,
        "tle_line1": "1 66631U 25271Q   25351.55721089  .00052496  00000+0  94504-3 0  9992",
        "tle_line2": "2 66631  53.1591 164.1431 0000966  43.7277 316.3808 15.49326062  4954"
      },
      "geometry": {
        "type": "Point",
        "coordinates": [
          14.31723247246121,
          -35.41752227484432
        ]
      }
    },
    {
      "type": "Feature",
      "properties": {
        "norad_id": 66632,
        "name": "STARLINK-35973",
        "group": "last-30-days",
        "lat": 44.9853640725712,
        "lon": -66.2236769175241,
        "alt_km": 440.307229786431,
        "timestamp": "2025-12-17T23:38:05.624690+00:00",
        "meta_object_name": "STARLINK-35973",
        "meta_object_id": "2025-271R",
        "meta_epoch": "2025-12-17T14:00:03.000384",
        "meta_mean_motion": 15.39621364,
        "meta_eccentricity": 0.00013952,
        "meta_inclination": 53.1585,
        "meta_ra_of_asc_node": 164.2046,
        "meta_arg_of_pericenter": 103.4635,
        "meta_mean_anomaly": 308.2387,
        "meta_ephemeris_type": 0,
        "meta_classification_type": "U",
        "meta_norad_cat_id": 66632,
        "meta_element_set_no": 999,
        "meta_rev_at_epoch": 496,
        "meta_bstar": 4.594574e-06,
        "meta_mean_motion_dot": -2.16e-06,
        "meta_mean_motion_ddot": 0,
        "tle_line1": "1 66632U 25271R   25351.58336806 -.00000216  00000+0  45946-5 0  9997",
        "tle_line2": "2 66632  53.1585 164.2046 0001395 103.4635 308.2387 15.39621364  4965"
      },
      "geometry": {
        "type": "Point",
        "coordinates": [
          -66.2236769175241,
          44.9853640725712
        ]
      }
    },
    {
      "type": "Feature",
      "properties": {
        "norad_id": 66633,
        "name": "STARLINK-35948",
        "group": "last-30-days",
        "lat": 43.995449711182836,
        "lon": -64.0707909282472,
        "alt_km": 440.61797394249606,
        "timestamp": "2025-12-17T23:38:05.624701+00:00",
        "meta_object_name": "STARLINK-35948",
        "meta_object_id": "2025-271S",
        "meta_epoch": "2025-12-17T14:00:03.000384",
        "meta_mean_motion": 15.39614094,
        "meta_eccentricity": 0.00012049,
        "meta_inclination": 53.1585,
        "meta_ra_of_asc_node": 164.2001,
        "meta_arg_of_pericenter": 99.4569,
        "meta_mean_anomaly": 314.0799,
        "meta_ephemeris_type": 0,
        "meta_classification_type": "U",
        "meta_norad_cat_id": 66633,
        "meta_element_set_no": 999,
        "meta_rev_at_epoch": 502,
        "meta_bstar": 9.8618147e-05,
        "meta_mean_motion_dot": 3.546e-05,
        "meta_mean_motion_ddot": 0,
        "tle_line1": "1 66633U 25271S   25351.58336806  .00003546  00000+0  98618-4 0  9999",
        "tle_line2": "2 66633  53.1585 164.2001 0001204  99.4569 314.0799 15.39614094  5028"
      },
      "geometry": {
        "type": "Point",
        "coordinates": [
          -64.0707909282472,
          43.995449711182836
        ]
      }
    },
    {
      "type": "Feature",
      "properties": {
        "norad_id": 66634,
        "name": "STARLINK-35967",
        "group": "last-30-days",
        "lat": 26.95863052422438,
        "lon": -40.16012696788753,
        "alt_km": 443.97591722588186,
        "timestamp": "2025-12-17T23:38:05.624713+00:00",
        "meta_object_name": "STARLINK-35967",
        "meta_object_id": "2025-271T",
        "meta_epoch": "2025-12-17T14:00:03.000384",
        "meta_mean_motion": 15.39628661,
        "meta_eccentricity": 7.341e-05,
        "meta_inclination": 53.1595,
        "meta_ra_of_asc_node": 164.1477,
        "meta_arg_of_pericenter": 63.1397,
        "meta_mean_anomaly": 16.0714,
        "meta_ephemeris_type": 0,
        "meta_classification_type": "U",
        "meta_norad_cat_id": 66634,
        "meta_element_set_no": 999,
        "meta_rev_at_epoch": 495,
        "meta_bstar": 3.5571427e-05,
        "meta_mean_motion_dot": 1.024e-05,
        "meta_mean_motion_ddot": 0,
        "tle_line1": "1 66634U 25271T   25351.58336806  .00001024  00000+0  35571-4 0  9998",
        "tle_line2": "2 66634  53.1595 164.1477 0000734  63.1397  16.0714 15.39628661  4952"
      },
      "geometry": {
        "type": "Point",
        "coordinates": [
          -40.16012696788753,
          26.95863052422438
        ]
      }
    },
    {
      "type": "Feature",
      "properties": {
        "norad_id": 66635,
        "name": "STARLINK-35955",
        "group": "last-30-days",
        "lat": -13.615416171462446,
        "lon": -7.383998274891683,
        "alt_km": 450.2210068777813,
        "timestamp": "2025-12-17T23:38:05.624726+00:00",
        "meta_object_name": "STARLINK-35955",
        "meta_object_id": "2025-271U",
        "meta_epoch": "2025-12-17T14:00:03.000384",
        "meta_mean_motion": 15.41713492,
        "meta_eccentricity": 0.00013452,
        "meta_inclination": 53.16,
        "meta_ra_of_asc_node": 164.0485,
        "meta_arg_of_pericenter": 68.9998,
        "meta_mean_anomaly": 60.3591,
        "meta_ephemeris_type": 0,
        "meta_classification_type": "U",
        "meta_norad_cat_id": 66635,
        "meta_element_set_no": 999,
        "meta_rev_at_epoch": 502,
        "meta_bstar": -0.064371842,
        "meta_mean_motion_dot": -0.02447323,
        "meta_mean_motion_ddot": 0,
        "tle_line1": "1 66635U 25271U   25351.58336806 -.02447323  00000+0 -64372-1 0  9997",
        "tle_line2": "2 66635  53.1600 164.0485 0001345  68.9998  60.3591 15.41713492  5021"
      },
      "geometry": {
        "type": "Point",
        "coordinates": [
          -7.383998274891683,
          -13.615416171462446
        ]
      }
    },
    {
      "type": "Feature",
      "properties": {
        "norad_id": 66636,
        "name": "STARLINK-35968",
        "group": "last-30-days",
        "lat": 7.005664959432941,
        "lon": -23.081255916731152,
        "alt_km": 446.8933790447418,
        "timestamp": "2025-12-17T23:38:05.624736+00:00",
        "meta_object_name": "STARLINK-35968",
        "meta_object_id": "2025-271V",
        "meta_epoch": "2025-12-17T14:00:03.000384",
        "meta_mean_motion": 15.39593712,
        "meta_eccentricity": 8.672e-05,
        "meta_inclination": 53.1599,
        "meta_ra_of_asc_node": 164.0968,
        "meta_arg_of_pericenter": 114.4691,
        "meta_mean_anomaly": 350.5143,
        "meta_ephemeris_type": 0,
        "meta_classification_type": "U",
        "meta_norad_cat_id": 66636,
        "meta_element_set_no": 999,
        "meta_rev_at_epoch": 502,
        "meta_bstar": 0.00025495758,
        "meta_mean_motion_dot": 9.803e-05,
        "meta_mean_motion_ddot": 0,
        "tle_line1": "1 66636U 25271V   25351.58336806  .00009803  00000+0  25496-3 0  9997",
        "tle_line2": "2 66636  53.1599 164.0968 0000867 114.4691 350.5143 15.39593712  5025"
      },
      "geometry": {
        "type": "Point",
        "coordinates": [
          -23.081255916731152,
          7.005664959432941
        ]
      }
    },
    {
      "type": "Feature",
      "properties": {
        "norad_id": 66637,
        "name": "STARLINK-35953",
        "group": "last-30-days",
        "lat": -30.585705219342312,
        "lon": 8.414088033758457,
        "alt_km": 443.1295008150473,
        "timestamp": "2025-12-17T23:38:05.624746+00:00",
        "meta_object_name": "STARLINK-35953",
        "meta_object_id": "2025-271W",
        "meta_epoch": "2025-12-17T14:00:03.000384",
        "meta_mean_motion": 15.44364139,
        "meta_eccentricity": 0.00013643,
        "meta_inclination": 53.159,
        "meta_ra_of_asc_node": 164.0123,
        "meta_arg_of_pericenter": 77.2879,
        "meta_mean_anomaly": 70.4089,
        "meta_ephemeris_type": 0,
        "meta_classification_type": "U",
        "meta_norad_cat_id": 66637,
        "meta_element_set_no": 999,
        "meta_rev_at_epoch": 502,
        "meta_bstar": -0.050208046,
        "meta_mean_motion_dot": -0.02087894,
        "meta_mean_motion_ddot": 0,
        "tle_line1": "1 66637U 25271W   25351.58336806 -.02087894  00000+0 -50208-1 0  9995",
        "tle_line2": "2 66637  53.1590 164.0123 0001364  77.2879  70.4089 15.44364139  5029"
      },
      "geometry": {
        "type": "Point",
        "coordinates": [
          8.414088033758457,
          -30.585705219342312
        ]
      }
    }
  ]
}